     3.04           N: GNSS NAV DATA    G: GPS              RINEX VERSION / TYPE
Spider V7.8.3.9486  BYGEO               20240318 004201 UTC PGM / RUN BY / DATE
GPSA   2.8871D-08  7.4506D-09 -1.1921D-07  0.0000D+00       IONOSPHERIC CORR
GPSB   1.3312D+05  0.0000D+00 -2.6214D+05  1.3107D+05       IONOSPHERIC CORR
GPUT  9.3132257462D-10 8.881784197D-16 319488 2306          TIME SYSTEM CORR
    18    18  1929     7                                    LEAP SECONDS
                                                            END OF HEADER
G31 2024 03 17 00 00 00-2.279845066369D-04 0.000000000000D+00 0.000000000000D+00
     9.800000000000D+01-1.312500000000D+00 4.785913443328D-09 1.427641372182D+00
     2.607703208923D-08 1.052750728559D-02 7.972121238708D-06 5.153688003540D+03
     0.000000000000D+00-1.322478055954D-07 1.561972569627D-01 7.264316082001D-08
     9.546905735516D-01 2.276250000000D+02 6.635162027760D-01-8.100694337543D-09
    -1.575065633475D-10 1.000000000000D+00 2.306000000000D+03 0.000000000000D+00
     2.000000000000D+00 0.000000000000D+00-1.350417733192D-08 9.800000000000D+01
    -7.260000000000D+03                   
G32 2024 03 16 21 59 44-6.160112097859D-04-1.250555214938D-12 0.000000000000D+00
     8.000000000000D+00-3.456250000000D+01 4.500187333889D-09-1.466409482481D+00
    -1.784414052963D-06 7.656824192964D-03 7.871538400650D-06 5.153645618439D+03
     5.975840000000D+05 2.216547727585D-07-8.021853019634D-01 1.490116119385D-08
     9.614005194249D-01 2.287500000000D+02-2.157017968411D+00-7.894971787437D-09
     2.017941230781D-10 1.000000000000D+00 2.305000000000D+03 0.000000000000D+00
     2.000000000000D+00 0.000000000000D+00 4.656612873077D-10 8.000000000000D+00
     5.903100000000D+05                   
G06 2024 03 17 02 00 00 3.646821714938D-04-1.648459146963D-11 0.000000000000D+00
     8.100000000000D+01-2.237500000000D+01 4.001595055314D-09-2.071895739300D+00
    -1.065433025360D-06 3.133205929771D-03 4.513189196587D-06 5.153583192825D+03
     7.200000000000D+03-5.960464477539D-08-2.994182577917D+00 2.235174179077D-08
     9.900052974887D-01 3.097500000000D+02-7.332225186210D-01-7.873184770801D-09
    -1.071473205300D-11 1.000000000000D+00 2.306000000000D+03 0.000000000000D+00
     2.000000000000D+00 0.000000000000D+00 3.725290298462D-09 8.100000000000D+01
    -6.000000000000D+01                   
G16 2024 03 17 02 00 00-3.394172526896D-04 8.867573342286D-12 0.000000000000D+00
     1.600000000000D+02 5.281250000000D+01 4.395897423848D-09 8.552544473635D-01
     2.911314368248D-06 1.400363759603D-02 8.812174201012D-06 5.153749015808D+03
     7.200000000000D+03-2.402812242508D-07 1.268291542851D+00 7.078051567078D-08
     9.622575495008D-01 2.121875000000D+02 8.331532471712D-01-8.038192333970D-09
    -3.575148788126D-10 1.000000000000D+00 2.306000000000D+03 0.000000000000D+00
     2.000000000000D+00 0.000000000000D+00-1.024454832077D-08 1.600000000000D+02
    -6.000000000000D+01                   
G26 2024 03 17 02 00 00 1.786267384887D-04-4.547473508865D-12 0.000000000000D+00
     5.000000000000D+01 4.418750000000D+01 5.158786287041D-09 1.728791002444D+00
     2.320855855942D-06 8.838243549690D-03 8.489936590195D-06 5.153604803085D+03
     7.200000000000D+03-1.564621925354D-07 1.103375912950D+00 5.587935447693D-08
     9.314929996452D-01 2.015625000000D+02 5.395559110123D-01-8.296416886822D-09
    -3.228705913738D-10 1.000000000000D+00 2.306000000000D+03 0.000000000000D+00
     2.000000000000D+00 0.000000000000D+00 6.984919309616D-09 5.000000000000D+01
    -6.000000000000D+01                   
G09 2024 03 17 02 00 00 1.271483488381D-04 1.318767317571D-11 0.000000000000D+00
     2.400000000000D+01-3.628125000000D+01 4.586262480899D-09 3.369649691549D-01
    -1.998618245125D-06 2.704980899580D-03 8.072704076767D-06 5.153704002380D+03
     7.200000000000D+03-3.911554813385D-08-9.370615007614D-01-5.774199962616D-08
     9.579334138175D-01 2.216250000000D+02 2.008064819914D+00-8.009976681933D-09
     1.642925517853D-10 1.000000000000D+00 2.306000000000D+03 0.000000000000D+00
     2.000000000000D+00 0.000000000000D+00 1.396983861923D-09 2.400000000000D+01
    -6.000000000000D+01                   
G04 2024 03 17 02 00 00 3.166552633047D-04 9.094947017729D-12 0.000000000000D+00
     8.800000000000D+01-3.931250000000D+01 4.406969456028D-09-3.790413721374D-01
    -2.196058630943D-06 2.780388109386D-03 7.983297109604D-06 5.153772718430D+03
     7.200000000000D+03 4.097819328308D-08-8.780810164674D-01-1.862645149231D-08
     9.644422786749D-01 2.270000000000D+02-2.960928931466D+00-7.912829502743D-09
     1.292911055994D-10 1.000000000000D+00 2.306000000000D+03 0.000000000000D+00
     2.000000000000D+00 0.000000000000D+00-4.656612873077D-09 8.560000000000D+02
    -6.000000000000D+01                   
G20 2024 03 17 02 00 00 3.836657851934D-04-1.364242052659D-12 0.000000000000D+00
     3.900000000000D+01-7.821875000000D+01 4.710196233049D-09-1.596834951980D+00
    -3.900378942490D-06 3.756533260457D-03 6.247311830521D-06 5.153747755051D+03
     7.200000000000D+03 5.215406417847D-08-2.135704384294D+00 3.725290298462D-09
     9.526800428106D-01 2.543437500000D+02-2.606909813400D+00-8.177840626900D-09
     1.064330082401D-10 1.000000000000D+00 2.306000000000D+03 0.000000000000D+00
     2.000000000000D+00 0.000000000000D+00-8.381903171539D-09 3.900000000000D+01
    -6.000000000000D+01                   
G03 2024 03 17 02 00 00 2.564624883235D-04 2.273736754432D-11 0.000000000000D+00
     9.200000000000D+01-6.681250000000D+01 3.915877400118D-09 2.942522534229D+00
    -3.537163138390D-06 5.203517386690D-03 6.761401891708D-06 5.153765390396D+03
     7.200000000000D+03 0.000000000000D+00-1.957672504461D+00-1.061707735062D-07
     9.831349616659D-01 2.576562500000D+02 1.062659355228D+00-7.702106508134D-09
     7.536028051591D-11 1.000000000000D+00 2.306000000000D+03 0.000000000000D+00
     2.000000000000D+00 0.000000000000D+00 1.862645149231D-09 9.200000000000D+01
    -6.000000000000D+01                   
G07 2024 03 17 02 00 00-8.596573024988D-05-8.753886504564D-12 0.000000000000D+00
     3.400000000000D+01-2.812500000000D+00 4.705553280360D-09-2.949617417736D+00
    -3.241002559662D-07 1.815972919576D-02 7.960945367813D-06 5.153654674530D+03
     7.200000000000D+03 1.490116119385D-07 1.349533589491D-01-2.421438694000D-07
     9.506977858874D-01 2.182812500000D+02-2.142387994716D+00-7.735679652399D-09
    -3.392998382257D-11 1.000000000000D+00 2.306000000000D+03 0.000000000000D+00
     2.000000000000D+00 0.000000000000D+00-1.117587089539D-08 3.400000000000D+01
    -6.000000000000D+01                   
G31 2024 03 17 02 00 00-2.279845066369D-04 0.000000000000D+00 0.000000000000D+00
     1.220000000000D+02 5.625000000000D-01 4.740554615523D-09 2.477840186618D+00
    -1.452863216400D-07 1.052758982405D-02 7.851049304008D-06 5.153687492371D+03
     7.200000000000D+03-7.264316082001D-08 1.561389494368D-01-1.769512891769D-07
     9.546906832704D-01 2.269375000000D+02 6.634919519830D-01-7.876757024405D-09
    -6.678849834296D-11 1.000000000000D+00 2.306000000000D+03 0.000000000000D+00
     2.000000000000D+00 0.000000000000D+00-1.350417733192D-08 1.220000000000D+02
    -6.000000000000D+01                   
G11 2024 03 17 02 00 00-6.088921800256D-04-1.159605744760D-11 0.000000000000D+00
     9.000000000000D+00-2.471875000000D+01 4.510544826530D-09-8.857013786861D-01
    -1.227483153343D-06 1.227168366313D-03 3.950670361519D-06 5.153680166245D+03
     7.200000000000D+03-2.793967723846D-08-2.959546725503D+00-2.607703208923D-08
     9.664578169845D-01 3.071250000000D+02-2.483370038902D+00-8.185698341379D-09
     4.643050700859D-12 1.000000000000D+00 2.306000000000D+03 0.000000000000D+00
     2.000000000000D+00 0.000000000000D+00-8.381903171539D-09 2.650000000000D+02
    -6.000000000000D+01                   
G29 2024 03 17 02 00 00-6.046094931662D-04 1.023181539495D-12 0.000000000000D+00
     5.600000000000D+01 8.400000000000D+01 4.244105511475D-09-7.096252213674D-02
     4.261732101440D-06 2.710625645705D-03 5.397945642471D-06 5.153629407883D+03
     7.200000000000D+03 2.235174179077D-08 2.304704067467D+00-3.539025783539D-08
     9.722861279628D-01 2.792187500000D+02 2.494766710556D+00-8.066764145553D-09
     4.214461418739D-11 1.000000000000D+00 2.306000000000D+03 0.000000000000D+00
     2.000000000000D+00 0.000000000000D+00-1.024454832077D-08 5.600000000000D+01
    -6.000000000000D+01                   
G30 2024 03 17 02 00 00-4.187193699181D-04 5.343281372916D-12 0.000000000000D+00
     2.800000000000D+01-1.687500000000D+00 5.151643112100D-09-3.077214267834D+00
    -1.490116119385D-07 6.932778167538D-03 7.871538400650D-06 5.153671586990D+03
     7.200000000000D+03-1.303851604462D-08 1.366254728508D-01-1.136213541031D-07
     9.358311252141D-01 2.149375000000D+02-2.510319081895D+00-8.119981131927D-09
    -7.357449371970D-11 1.000000000000D+00 2.306000000000D+03 0.000000000000D+00
     2.000000000000D+00 0.000000000000D+00 3.725290298462D-09 2.800000000000D+01
    -6.000000000000D+01                   
G06 2024 03 17 01 59 44 3.646821714938D-04-1.648459146963D-11 0.000000000000D+00
     3.300000000000D+01-2.237500000000D+01 4.001595055314D-09-2.074230345894D+00
    -1.065433025360D-06 3.133201389574D-03 4.513189196587D-06 5.153583198547D+03
     7.184000000000D+03-5.960464477539D-08-2.994182449180D+00 2.235174179077D-08
     9.900053062662D-01 3.097500000000D+02-7.332218047170D-01-7.873184770801D-09
    -1.071473205300D-11 1.000000000000D+00 2.306000000000D+03 0.000000000000D+00
     2.000000000000D+00 0.000000000000D+00 3.725290298462D-09 3.300000000000D+01
    -9.000000000000D+01                   
